ONEWEB-0258             
1 48976U 21060K   25338.09615381  .00000014  00000+0  20514-5 0  9998
2 48976  87.9031 267.6341 0001707  72.0197 288.1120 13.16593749213921
ONEWEB-0259             
1 48977U 21060L   25338.08981808  .00000002  00000+0 -28357-4 0  9998
2 48977  87.9039 267.6288 0001903  71.5975 288.5362 13.16594047213953
ONEWEB-0260             
1 48978U 21060M   25337.77712586  .00000019  00000+0  15556-4 0  9993
2 48978  87.9027 267.7059 0001869  87.9747 272.1597 13.16593293213891
ONEWEB-0261             
1 48979U 21060N   25338.05101646 -.00000225  00000+0 -62319-3 0  9994
2 48979  87.9029 267.6530 0002209  75.2569 284.8807 13.16594003213982
ONEWEB-0262             
1 48980U 21060P   25338.10723463  .00000112  00000+0  25914-3 0  9992
2 48980  87.9041 267.6146 0001826  65.5522 294.5799 13.16594539213955
ONEWEB-0263             
1 48981U 21060Q   25337.83491172 -.00000009  00000+0 -58441-4 0  9990
2 48981  87.9033 267.6835 0002154  71.6592 288.4773 13.16594983213881
ONEWEB-0264             
1 48982U 21060R   25338.10010078  .00000095  00000+0  21440-3 0  9995
2 48982  87.9029 267.6346 0001956  78.6363 281.4987 13.16596147213925
ONEWEB-0266             
1 48984U 21060T   25337.81749960  .00000018  00000+0  12898-4 0  9996
2 48984  87.9040 267.6761 0001666  69.7137 290.4173 13.16594556213872
